STARLINK-3736           
1 52113U 22029AB  26068.40924782  .00000376  00000+0  41697-4 0  9991
2 52113  53.2176  80.3803 0001372  91.0355 269.0795 15.08839368220740
LEMUR-2-SIERRINI        
1 60579U 24149DR  26068.80891719  .00014386  00000+0  92040-3 0  9991
2 60579  97.6873 151.1225 0006580 147.8458 212.3173 15.08682764 85461
